
{
  "tilejson": "3.0.0",
  "tiles": [
    "http://localhost:3000/campus_result/{z}/{x}/{y}"
  ],
  "vector_layers": [
    {
      "id": "Buildings_of_campus",
      "fields": {
        "addr:city": "String",
        "addr:country": "String",
        "addr:housenumber": "String",
        "addr:postcode": "String",
        "addr:street": "String",
        "alt_name": "String",
        "amenity": "String",
        "branch": "String",
        "brand": "String",
        "brand:en": "String",
        "brand:ru": "String",
        "brand:wikidata": "String",
        "brand:wikipedia": "String",
        "building": "String",
        "building:architecture": "String",
        "building:colour": "String",
        "building:flats": "String",
        "building:levels": "String",
        "building:material": "String",
        "building:part": "String",
        "contact:facebook": "String",
        "contact:instagram": "String",
        "contact:ok": "String",
        "contact:phone": "String",
        "contact:twitter": "String",
        "contact:vk": "String",
        "contact:website": "String",
        "contact:youtube": "String",
        "description": "String",
        "design:ref": "String",
        "disused": "String",
        "fax": "String",
        "full_id": "String",
        "government": "String",
        "health_facility:type": "String",
        "healthcare": "String",
        "heritage": "String",
        "heritage:name": "String",
        "historic:name": "String",
        "location": "String",
        "name": "String",
        "name:en": "String",
        "name:ru": "String",
        "name:uk": "String",
        "office": "String",
        "official_name": "String",
        "opening_hours": "String",
        "operator": "String",
        "operator:wikidata": "String",
        "operator:wikipedia": "String",
        "osm_id": "String",
        "osm_type": "String",
        "phone": "String",
        "power": "String",
        "ref": "String",
        "roof:angle": "String",
        "roof:colour": "String",
        "roof:material": "String",
        "roof:shape": "String",
        "short_name": "String",
        "start_date": "String",
        "substation": "String",
        "type": "String",
        "website": "String",
        "wheelchair": "String",
        "wikidata": "String",
        "wikipedia": "String"
      },
      "description": "",
      "maxzoom": 15,
      "minzoom": 10
    }
  ],
  "bounds": [37.6752795, 55.762907, 37.6872311, 55.7697655],
  "center": [37.6812553, 55.7663363, 10],
  "maxzoom": 15,
  "minzoom": 10,
  "name": "campus_result",
  "version": "2",
  "format": "pbf",
  "scheme": "tms"
}